[{"OBJECT_NAME":"STARLINK-1434","OBJECT_ID":"2020-035BH","EPOCH":"2026-03-09T05:47:35.213856","MEAN_MOTION":15.26724568,"ECCENTRICITY":0.00053438,"INCLINATION":53.0547,"RA_OF_ASC_NODE":22.1128,"ARG_OF_PERICENTER":88.04,"MEAN_ANOMALY":272.121,"EPHEMERIS_TYPE":0,"CLASSIFICATION_TYPE":"U","NORAD_CAT_ID":45712,"ELEMENT_SET_NO":999,"REV_AT_EPOCH":31932,"BSTAR":0.0020295208,"MEAN_MOTION_DOT":0.00054112,"MEAN_MOTION_DDOT":0},{"OBJECT_NAME":"STARLINK-30854","OBJECT_ID":"2023-171Q","EPOCH":"2026-03-09T22:53:09.229920","MEAN_MOTION":15.27137431,"ECCENTRICITY":0.00023812,"INCLINATION":42.9977,"RA_OF_ASC_NODE":283.8391,"ARG_OF_PERICENTER":39.8536,"MEAN_ANOMALY":320.249,"EPHEMERIS_TYPE":0,"CLASSIFICATION_TYPE":"U","NORAD_CAT_ID":58244,"ELEMENT_SET_NO":999,"REV_AT_EPOCH":12977,"BSTAR":0.00293725,"MEAN_MOTION_DOT":0.0008036,"MEAN_MOTION_DDOT":0}]
